TIANWANG 1C (TW-1C)     
1 40926U 15051B   17154.38646398  .00007250  00000-0  16886-3 0  9994
2 40926  97.2300 194.0542 0010628 210.4817 270.2589 15.42516359 94792
TIANWANG 1B (TW-1B)     
1 40927U 15051C   17154.58237618  .00006625  00000-0  16025-3 0  9998
2 40927  97.2395 194.2738 0009959 221.8787 290.4534 15.41419184 94772
TIANWANG 1A (TW-1A)     
1 40928U 15051D   17154.60835953  .00003481  00000-0  10136-3 0  9992
2 40928  97.2280 190.6685 0010831 244.4736 235.7849 15.36018302 94618
LAPAN-A2 (IO-86)        
1 40931U 15052B   17154.39745033  .00000723  00000-0  11748-4 0  9999
2 40931   6.0011 331.0247 0013417  44.8933 315.2269 14.76530051 90924
LQSAT                   
1 40958U 15057A   17154.52594170  .00000100  00000-0  23395-4 0  9992
2 40958  97.9776 230.0831 0019571 108.6034 251.7306 14.72966868 89104
CHUBUSAT-2              
1 41338U 16012B   17154.50854466  .00000334  00000-0  19502-4 0  9996
2 41338  31.0022 199.1341 0014000 284.2400  75.6680 14.99735845 70938
CHUBUSAT-3              
1 41339U 16012C   17154.50517901  .00000459  00000-0  29240-4 0  9995
2 41339  31.0106 198.3205 0013968 291.0985  68.8149 14.99942642 70915
OUFTI-1                 
1 41458U 16025C   17154.59814390  .00000915  00000-0  53540-4 0  9999
2 41458  98.1871 191.3991 0174036 335.4629  23.8377 15.03128585 60547
E-ST@R-II               
1 41459U 16025D   17154.61768330  .00001869  00000-0  10448-3 0  9993
2 41459  98.1883 191.3720 0174235 335.9913  23.3251 15.02989259 60530
AAUSAT 4                
1 41460U 16025E   17154.55650841  .00002864  00000-0  15752-3 0  9994
2 41460  98.1796 191.4012 0167088 334.5267  24.7747 15.03858783 60549
NUSAT 1 (LO-87)         
1 41557U 16033B   17154.44932246  .00001575  00000-0  62090-4 0  9996
2 41557  97.4635 233.9664 0015741  60.0378 300.2421 15.27002402 56335
BEESAT-4                
1 41619U 16040W   17154.43912273  .00001538  00000-0  73002-4 0  9994
2 41619  97.4632 216.9589 0013809 113.8802 246.3882 15.20700135 40504
PRATHAM                 
1 41783U 16059A   17154.61745777  .00000059  00000-0  20955-4 0  9995
2 41783  98.1679 216.1312 0033209 201.2129 158.7698 14.62836126 36614
ALSAT 1N                
1 41789U 16059G   17154.54888195  .00000159  00000-0  39463-4 0  9990
2 41789  98.1677 216.5361 0027889 195.1546 164.8829 14.64046368 36614
NAYIF-1 (EO-88)         
1 42017U 17008BX  17154.57090473  .00001632  00000-0  72612-4 0  9997
2 42017  97.4963 216.0534 0004914 267.9245  92.1428 15.22923028 16410
